{
  "norad_id": 56073,
  "name": "ONEWEB-0632",
  "history": [
    {
      "epoch": "2026-03-28T18:38:44.724192Z",
      "apogee_km": 1203.0031254617934,
      "perigee_km": 1200.5408678233225,
      "latitude_deg": 2.9966049852731695e-05,
      "longitude_deg": 169.38576040015514,
      "height_km": 1204.8748818530985,
      "semi_major_axis_km": 7579.908996642557,
      "eccentricity": 0.00016242,
      "inclination_deg": 87.8928,
      "raan_deg": 275.2646,
      "arg_perigee_deg": 99.831,
      "mean_anomaly_deg": 260.3004,
      "mean_motion_rev_day": 13.1554823
    },
    {
      "epoch": "2026-03-29T00:07:18.678720Z",
      "apogee_km": 1203.0295296587256,
      "perigee_km": 1200.5054214683632,
      "latitude_deg": 3.812260783311166e-05,
      "longitude_deg": 86.97398804111555,
      "height_km": 1204.8632513900518,
      "semi_major_axis_km": 7579.904475563544,
      "eccentricity": 0.0001665,
      "inclination_deg": 87.8928,
      "raan_deg": 275.2192,
      "arg_perigee_deg": 99.2641,
      "mean_anomaly_deg": 260.8678,
      "mean_motion_rev_day": 13.15549407
    },
    {
      "epoch": "2026-03-30T01:40:37.663104Z",
      "apogee_km": 1203.0515167681242,
      "perigee_km": 1200.4864765788498,
      "latitude_deg": 4.345704669941552e-05,
      "longitude_deg": 62.38236943550635,
      "height_km": 1204.8723711605958,
      "semi_major_axis_km": 7579.905996673487,
      "eccentricity": 0.0001692,
      "inclination_deg": 87.8928,
      "raan_deg": 275.0062,
      "arg_perigee_deg": 99.461,
      "mean_anomaly_deg": 260.6712,
      "mean_motion_rev_day": 13.15549011
    },
    {
      "epoch": "2026-03-30T05:19:40.333440Z",
      "apogee_km": 1203.0445130519847,
      "perigee_km": 1200.4906915933689,
      "latitude_deg": 1.3131565081180079e-05,
      "longitude_deg": 7.441111464616991,
      "height_km": 1204.8644461122099,
      "semi_major_axis_km": 7579.9046023226765,
      "eccentricity": 0.00016846,
      "inclination_deg": 87.8928,
      "raan_deg": 274.976,
      "arg_perigee_deg": 99.2053,
      "mean_anomaly_deg": 260.9268,
      "mean_motion_rev_day": 13.15549374
    },
    {
      "epoch": "2026-03-30T12:37:45.712992Z",
      "apogee_km": 1203.0421353511474,
      "perigee_km": 1200.4928618701742,
      "latitude_deg": -4.4823169405894614e-05,
      "longitude_deg": -102.44206682198669,
      "height_km": 1204.8674392802407,
      "semi_major_axis_km": 7579.90449861066,
      "eccentricity": 0.00016816,
      "inclination_deg": 87.8928,
      "raan_deg": 274.9151,
      "arg_perigee_deg": 99.3622,
      "mean_anomaly_deg": 260.7698,
      "mean_motion_rev_day": 13.15549401
    }
  ]
}